{
    "links": {
        "self": "http://www.neowsapp.com/rest/v1/neo/3648208?api_key=iIulBulltgU6a56xZRHN4H3l9WmuAYTsLGpBGhQ2"
    },
    "id": "3648208",
    "neo_reference_id": "3648208",
    "name": "(2013 RD74)",
    "designation": "2013 RD74",
    "nasa_jpl_url": "http://ssd.jpl.nasa.gov/sbdb.cgi?sstr=3648208",
    "absolute_magnitude_h": 24.1,
    "estimated_diameter": {
        "kilometers": {
            "estimated_diameter_min": 0.040230458,
            "estimated_diameter_max": 0.0899580388
        },
        "meters": {
            "estimated_diameter_min": 40.2304579834,
            "estimated_diameter_max": 89.9580388169
        },
        "miles": {
            "estimated_diameter_min": 0.0249980399,
            "estimated_diameter_max": 0.0558973165
        },
        "feet": {
            "estimated_diameter_min": 131.9896957704,
            "estimated_diameter_max": 295.1379320721
        }
    },
    "is_potentially_hazardous_asteroid": false,
    "close_approach_data": [
        {
            "close_approach_date": "2013-09-05",
            "close_approach_date_full": "2013-Sep-05 06:15",
            "epoch_date_close_approach": 1378361700000,
            "relative_velocity": {
                "kilometers_per_second": "5.5754202412",
                "kilometers_per_hour": "20071.5128683566",
                "miles_per_hour": "12471.657537563"
            },
            "miss_distance": {
                "astronomical": "0.1401880292",
                "lunar": "54.5331433588",
                "kilometers": "20971830.567817804",
                "miles": "13031291.2458375352"
            },
            "orbiting_body": "Earth"
        }
    ],
    "orbital_data": {
        "orbit_id": "4",
        "orbit_determination_date": "2017-04-06 08:44:40",
        "first_observation_date": "2013-09-14",
        "last_observation_date": "2013-09-15",
        "data_arc_in_days": 1,
        "observations_used": 11,
        "orbit_uncertainty": "9",
        "minimum_orbit_intersection": ".116189",
        "jupiter_tisserand_invariant": "4.108",
        "epoch_osculation": "2456550.5",
        "eccentricity": ".3448393370945408",
        "semi_major_axis": "1.711408892355868",
        "inclination": "7.305402056413056",
        "ascending_node_longitude": "159.3852707196133",
        "orbital_period": "817.7661000497477",
        "perihelion_distance": "1.121247784418168",
        "perihelion_argument": "192.0932090904047",
        "aphelion_distance": "2.301570000293568",
        "perihelion_time": "2456545.388536975567",
        "mean_anomaly": "2.25018705065414",
        "mean_motion": ".4402236776238339",
        "equinox": "J2000",
        "orbit_class": {
            "orbit_class_type": "AMO",
            "orbit_class_description": "Near-Earth asteroid orbits similar to that of 1221 Amor",
            "orbit_class_range": "1.017 AU < q (perihelion) < 1.3 AU"
        }
    },
    "is_sentry_object": false
}